SatCatId,ObjectName,LaunchYear,OrbitalPeriod,LaunchMass,StatusCode,Inclination,Status,UcsData,OrbitClassEstimated,LaunchSiteCountry,Owner,UseType,Purpose,LaunchVehicleClass,TLE1,TLE2,MeanMotion,Eccentricity,OrbitClass
47835,STARLINK-2425,2021,95.59,260.0,+,53.05,Active,1,LEO,USA,USA,Commercial,Communications,Falcon,1 47835U 21018BA  23276.50510057  .00014252  00000+0  97413-3 0  9992,2 47835  53.0539 283.9604 0001649 103.6962 256.4210 15.06386013142643,15.06386013,0.0001649,LEO
47836,STARLINK-2426,2021,95.59,260.0,+,53.05,Active,1,LEO,USA,USA,Commercial,Communications,Falcon,1 47836U 21018BB  23276.49634272  .00023211  00000+0  15726-2 0  9998,2 47836  53.0532 278.9615 0001170  87.6795 272.4328 15.06386221142725,15.06386221,0.000117,LEO
47837,STARLINK-2427,2021,95.59,260.0,+,53.05,Active,1,LEO,USA,USA,Commercial,Communications,Falcon,1 47837U 21018BC  23276.24016118  .00012556  00000+0  86078-3 0  9994,2 47837  53.0538 260.0243 0001204  85.7448 274.3679 15.06380818142976,15.06380818,0.0001204,LEO
47838,STARLINK-2429,2021,95.59,260.0,+,53.05,Active,1,LEO,USA,USA,Commercial,Communications,Falcon,1 47838U 21018BD  23276.45209800  .00005556  00000+0  39163-3 0  9995,2 47838  53.0532 279.0721 0001438  96.6179 263.4974 15.06394238142713,15.06394238,0.0001438,LEO
47839,STARLINK-2431,2021,95.59,260.0,+,53.06,Active,1,LEO,USA,USA,Commercial,Communications,Falcon,1 47839U 21018BE  23276.34797193  .00018934  00000+0  12871-2 0  9991,2 47839  53.0551 249.5438 0001478  91.1401 268.9758 15.06385740143139,15.0638574,0.0001478,LEO
47840,STARLINK-2432,2021,95.59,260.0,+,53.05,Active,1,LEO,USA,USA,Commercial,Communications,Falcon,1 47840U 21018BF  23276.35811124  .00020854  00000+0  14153-2 0  9994,2 47840  53.0532 259.4942 0001614  99.8757 260.2414 15.06384806142989,15.06384806,0.0001614,LEO
47841,STARLINK-2433,2021,95.59,260.0,+,53.05,Active,1,LEO,USA,USA,Commercial,Communications,Falcon,1 47841U 21018BG  23276.22172672  .00018578  00000+0  12634-2 0  9991,2 47841  53.0532 260.1050 0001473  96.9333 263.1824 15.06382524142960,15.06382524,0.0001473,LEO
47842,STARLINK-2434,2021,95.59,260.0,+,53.06,Active,1,LEO,USA,USA,Commercial,Communications,Falcon,1 47842U 21018BH  23276.40694683 -.00000290  00000+0 -58005-6 0  9993,2 47842  53.0559 289.2772 0001566  95.4293 264.6875 15.06390464142622,15.06390464,0.0001566,LEO
47843,STARLINK-2435,2021,95.59,260.0,+,53.05,Active,1,LEO,USA,USA,Commercial,Communications,Falcon,1 47843U 21018BJ  23276.31341187 -.00000728  00000+0 -29985-4 0  9991,2 47843  53.0542 284.6943 0001367  91.0859 269.0286 15.06406236142645,15.06406236,0.0001367,LEO
47844,STARLINK-2446,2021,95.59,260.0,+,53.05,Active,1,LEO,USA,USA,Commercial,Communications,Falcon,1 47844U 21018BK  23276.51107688  .00019573  00000+0  13300-2 0  9998,2 47844  53.0537 278.8099 0001328  91.8786 268.2355 15.06379210142729,15.0637921,0.0001328,LEO
47845,STARLINK-2453,2021,95.59,260.0,+,53.05,Active,1,LEO,USA,USA,Commercial,Communications,Falcon,1 47845U 21018BL  23276.39680956  .00022310  00000+0  15130-2 0  9995,2 47845  53.0528 279.3200 0001362  84.4212 275.6932 15.06372734142716,15.06372734,0.0001362,LEO
47846,STARLINK-2456,2021,95.59,260.0,+,53.05,Active,1,LEO,USA,USA,Commercial,Communications,Falcon,1 47846U 21018BM  23276.39217692  .00018812  00000+0  12793-2 0  9993,2 47846  53.0531 279.3291 0001393  82.4247 277.6900 15.06375640142762,15.0637564,0.0001393,LEO
47851,SHIYAN 9 (SY-9),2021,1436.12,5000.0,+,18.64,Active,1,GSO,PRC,China,Government,Technology Development,Long March,1 47851U 21019A   23276.44062808 -.00000242  00000+0  00000+0 0  9997,2 47851  18.6372 315.1150 0012757 355.1533   7.1036  1.00270196 14230,1.00270196,0.0012757,GSO
47854,YAOGAN-31 K,2021,107.04,500.0,+,63.41,Active,1,LEO,PRC,China,Military,Earth Observation,Long March,1 47854U 21020A   23276.55452101 -.00000025  00000+0  10718-3 0  9993,2 47854  63.4071 274.8289 0086437 355.9225   4.1087 13.45274320125593,13.4527432,0.0086437,LEO
47856,YAOGAN-31 L,2021,107.04,500.0,+,63.41,Active,1,LEO,PRC,China,Military,Earth Observation,Long March,1 47856U 21020C   23276.55471860 -.00000027  00000+0  10360-3 0  9993,2 47856  63.4065 275.6603 0086170 355.9797   4.0527 13.45274194125536,13.45274194,0.008617,LEO
47857,YAOGAN-31 M,2021,107.04,500.0,+,63.41,Active,1,LEO,PRC,China,Military,Earth Observation,Long March,1 47857U 21020D   23276.55474567 -.00000018  00000+0  11880-3 0  9999,2 47857  63.4076 274.8602 0086340 355.9500   4.0818 13.45274248125588,13.45274248,0.008634,LEO
47860,STARLINK-2258,2021,95.59,260.0,+,53.05,Active,1,LEO,USA,USA,Commercial,Communications,Falcon,1 47860U 21021A   23276.39772258  .00019802  00000+0  13457-2 0  9995,2 47860  53.0535 309.3147 0001114  99.5028 260.6087 15.06367402142061,15.06367402,0.0001114,LEO
47861,STARLINK-2280,2021,95.59,260.0,+,53.05,Active,1,LEO,USA,USA,Commercial,Communications,Falcon,1 47861U 21021B   23276.54839137  .00024135  00000+0  16346-2 0  9998,2 47861  53.0535 293.6388 0001041  87.4047 272.7061 15.06377303142405,15.06377303,0.0001041,LEO
47862,STARLINK-2291,2021,95.59,260.0,+,53.05,Active,1,LEO,USA,USA,Commercial,Communications,Falcon,1 47862U 21021C   23276.32954012 -.00002838  00000+0 -17168-3 0  9997,2 47862  53.0537 289.6223 0001650  75.1884 284.9288 15.06400753142435,15.06400753,0.000165,LEO
47863,STARLINK-2293,2021,95.59,260.0,+,53.05,Active,1,LEO,USA,USA,Commercial,Communications,Falcon,1 47863U 21021D   23276.35441442  .00020741  00000+0  14082-2 0  9991,2 47863  53.0548 299.5134 0001324 100.3179 259.7960 15.06373875142302,15.06373875,0.0001324,LEO
47864,STARLINK-2304,2021,95.59,260.0,+,53.05,Active,1,LEO,USA,USA,Commercial,Communications,Falcon,1 47864U 21021E   23276.33322580  .00016625  00000+0  11330-2 0  9990,2 47864  53.0539 289.6553 0001261  79.9118 280.2013 15.06378347142411,15.06378347,0.0001261,LEO
47865,STARLINK-2310,2021,95.59,260.0,+,53.05,Active,1,LEO,USA,USA,Commercial,Communications,Falcon,1 47865U 21021F   23276.39401820  .00021393  00000+0  14515-2 0  9998,2 47865  53.0523 299.3243 0001473  92.9795 267.1363 15.06380904142414,15.06380904,0.0001473,LEO
47866,STARLINK-2320,2021,95.59,-1.0,+,53.05,Active,0,LEO,USA,USA,Unknown,Unknown,Falcon,1 47866U 21021G   23276.33230272  .00017282  00000+0  11773-2 0  9999,2 47866  53.0531 299.6132 0001101  86.4955 273.6160 15.06366774142458,15.06366774,0.0001101,LEO
47867,STARLINK-2321,2021,95.59,260.0,+,53.05,Active,1,LEO,USA,USA,Commercial,Communications,Falcon,1 47867U 21021H   23276.32585353  .00014020  00000+0  95847-3 0  9994,2 47867  53.0545 289.6379 0001518  93.2569 266.8594 15.06390816142397,15.06390816,0.0001518,LEO
47868,STARLINK-2323,2021,95.59,260.0,+,53.05,Active,1,LEO,USA,USA,Commercial,Communications,Falcon,1 47868U 21021J   23276.31941179  .00023849  00000+0  16150-2 0  9994,2 47868  53.0539 239.6695 0001227 102.5740 257.5386 15.06389847143141,15.06389847,0.0001227,LEO
47869,STARLINK-2324,2021,95.59,260.0,+,53.05,Active,1,LEO,USA,USA,Commercial,Communications,Falcon,1 47869U 21021K   23276.32216055  .00018021  00000+0  12268-2 0  9996,2 47869  53.0542 289.6538 0001281  94.8702 265.2433 15.06364412142541,15.06364412,0.0001281,LEO
47870,STARLINK-2326,2021,95.59,260.0,+,53.05,Active,1,LEO,USA,USA,Commercial,Communications,Falcon,1 47870U 21021L   23276.40650185  .00001064  00000+0  90311-4 0  9999,2 47870  53.0534 314.2808 0001358  92.2786 267.8358 15.06386524141998,15.06386524,0.0001358,LEO
47871,STARLINK-2327,2021,95.59,260.0,+,53.05,Active,1,LEO,USA,USA,Commercial,Communications,Falcon,1 47871U 21021M   23276.31848148  .00020220  00000+0  13734-2 0  9995,2 47871  53.0539 289.6719 0001318  88.5197 271.5943 15.06373606142439,15.06373606,0.0001318,LEO
47873,STARLINK-2329,2021,95.59,260.0,+,53.05,Active,1,LEO,USA,USA,Commercial,Communications,Falcon,1 47873U 21021P   23276.56544249  .00025357  00000+0  17156-2 0  9997,2 47873  53.0531 288.5623 0001456  95.7317 264.3837 15.06388414142460,15.06388414,0.0001456,LEO
47874,STARLINK-2330,2021,95.59,260.0,+,53.05,Active,1,LEO,USA,USA,Commercial,Communications,Falcon,1 47874U 21021Q   23276.44243220  .00031329  00000+0  21134-2 0  9997,2 47874  53.0534 244.1252 0001439  91.9232 268.1922 15.06389214143080,15.06389214,0.0001439,LEO
47875,STARLINK-2331,2021,95.59,260.0,+,53.05,Active,1,LEO,USA,USA,Commercial,Communications,Falcon,1 47875U 21021R   23276.35810533 -.00003799  00000+0 -23628-3 0  9998,2 47875  53.0527 299.4971 0001611  73.6861 286.4305 15.06398560142352,15.0639856,0.0001611,LEO
47876,STARLINK-2332,2021,95.59,260.0,+,53.05,Active,1,LEO,USA,USA,Commercial,Communications,Falcon,1 47876U 21021S   23276.47973745  .00025810  00000+0  17463-2 0  9992,2 47876  53.0536 298.9482 0001455  74.0853 286.0296 15.06378761142329,15.06378761,0.0001455,LEO
47877,STARLINK-2333,2021,95.59,260.0,+,53.05,Active,1,LEO,USA,USA,Commercial,Communications,Falcon,1 47877U 21021T   23276.56083115  .00025527  00000+0  17271-2 0  9998,2 47877  53.0537 298.5857 0001405 103.0385 257.0761 15.06385378142328,15.06385378,0.0001405,LEO
47878,STARLINK-2335,2021,95.59,260.0,+,53.05,Active,1,LEO,USA,USA,Commercial,Communications,Falcon,1 47878U 21021U   23276.37283731 -.00004089  00000+0 -25591-3 0  9991,2 47878  53.0531 299.4294 0001447  91.7488 268.3666 15.06383651142096,15.06383651,0.0001447,LEO
47879,STARLINK-2336,2021,95.59,260.0,+,53.05,Active,1,LEO,USA,USA,Commercial,Communications,Falcon,1 47879U 21021V   23276.36961650  .00011353  00000+0  78029-3 0  9998,2 47879  53.0530 314.4439 0001589 107.1997 252.9166 15.06377001142264,15.06377001,0.0001589,LEO
47880,STARLINK-2337,2021,95.59,260.0,+,53.05,Active,1,LEO,USA,USA,Commercial,Communications,Falcon,1 47880U 21021W   23276.47513238  .00027830  00000+0  18811-2 0  9996,2 47880  53.0532 308.9696 0001468 104.2281 255.8872 15.06376103142179,15.06376103,0.0001468,LEO
